OBJECT_NAME,OBJECT_ID,EPOCH,MEAN_MOTION,ECCENTRICITY,INCLINATION,RA_OF_ASC_NODE,ARG_OF_PERICENTER,MEAN_ANOMALY,EPHEMERIS_TYPE,CLASSIFICATION_TYPE,NORAD_CAT_ID,ELEMENT_SET_NO,REV_AT_EPOCH,BSTAR,MEAN_MOTION_DOT,MEAN_MOTION_DDOT
INMARSAT 4-F3,2008-039A,2026-06-07T14:40:19.056288,1.00271604,.0002755,4.2850,31.5931,46.5711,299.9123,0,U,33278,999,4644,0,-.127E-5,0
NIMIQ 4,2008-044A,2026-06-07T14:44:56.111712,1.00270671,.0002034,0.0107,39.2508,27.7119,328.2861,0,U,33373,999,6488,0,-.206E-5,0
GALAXY 19 (G-19),2008-045A,2026-06-07T14:40:41.520288,1.00272044,.0002797,0.0219,78.0304,356.6886,304.4796,0,U,33376,999,6480,0,-.125E-5,0
ASTRA 1M,2008-057A,2026-06-07T16:07:28.346304,1.00274189,.0005053,0.2709,82.3308,20.5138,54.5052,0,U,33436,999,4564,0,.136E-5,0
EUTELSAT HOTBIRD 13C,2008-065A,2026-06-07T18:19:12.321120,1.00271442,.0003735,2.9252,79.3029,358.9830,42.3801,0,U,33459,999,4725,0,-.268E-5,0
EXPRESS-AM44,2009-007A,2026-06-07T20:13:11.138592,1.00272008,.0004381,3.4389,78.5070,352.9471,117.0887,0,U,33595,999,5219,0,-.74E-6,0
NSS-9,2009-008A,2026-06-07T17:43:11.373312,1.00271380,.0002212,1.2364,82.7516,343.7765,278.4729,0,U,33749,999,6342,0,.87E-6,0
TELSTAR 11N,2009-009A,2026-06-07T18:22:56.961984,1.00271223,.0002557,0.0172,10.7261,54.8938,68.7261,0,U,34111,999,4615,0,-.236E-5,0
WGS F2 (USA 204),2009-017A,2026-06-07T15:51:48.455136,1.00271920,.0000571,0.0143,331.5616,263.2633,316.7131,0,U,34713,999,4552,0,.82E-6,0
SES-7 (PROTOSTAR 2),2009-027A,2026-06-07T19:04:28.376832,1.00272623,.0000426,0.0614,79.4209,322.7039,248.4539,0,U,34941,999,6253,0,-.33E-5,0
MEASAT-3A,2009-032A,2026-06-07T17:36:34.507008,1.00271974,.0003114,0.0225,358.3958,75.5347,246.3515,0,U,35362,999,793,0,-.95E-6,0
GOES 14,2009-033A,2026-06-07T15:09:03.163104,1.00114378,.0001995,1.6645,83.1599,3.5143,183.9218,0,U,35491,999,649,0,-.237E-5,0
FM-5,2009-034A,2026-06-07T14:43:41.233152,1.00273109,.0000598,0.0184,288.8152,25.4069,76.5681,0,U,35493,999,4654,0,-.186E-5,0
TERRESTAR-1,2009-035A,2026-06-07T06:03:19.715328,1.00273477,.0002781,5.1772,48.8053,23.6067,163.0761,0,U,35496,999,6203,0,-.43E-6,0
ASIASAT 5,2009-042A,2026-06-07T20:46:57.687744,1.00271974,.0001496,0.0122,48.5791,9.0897,250.8449,0,U,35696,999,6161,0,-.292E-5,0
JCSAT-12 (JCSAT-RA),2009-044A,2026-06-07T19:11:20.218848,1.00271786,.0000191,0.0071,317.5925,136.7085,221.7736,0,U,35755,999,6151,0,-.313E-5,0
OPTUS D3,2009-044B,2026-06-07T17:35:27.114144,1.00270175,.0003141,0.8636,269.7236,170.9629,235.4519,0,U,35756,999,6147,0,-.131E-5,0
NIMIQ 5,2009-050A,2026-06-07T13:04:52.541184,1.00271662,.0002896,0.0257,70.2113,6.4286,302.8311,0,U,35873,999,6124,0,-.242E-5,0
AMAZONAS 2,2009-054A,2026-06-07T13:05:00.027744,1.00271917,.0003504,1.7898,83.1766,348.9259,308.1126,0,U,35942,999,6108,0,-.244E-5,0
COMSATBW-1,2009-054B,2026-06-07T18:51:37.109088,1.00271752,.0003019,0.0575,75.5591,5.9533,160.5811,0,U,35943,999,6121,0,.39E-6,0
NSS-12,2009-058A,2026-06-07T18:49:52.278240,1.00270711,.0004947,0.0660,63.8522,343.7595,188.0411,0,U,36032,999,6082,0,.87E-6,0
THOR 6,2009-058B,2026-06-07T18:33:25.955712,1.00271921,.00022,0.0408,117.4347,345.9396,70.3086,0,U,36033,999,6091,0,.5E-7,0
INTELSAT 14 (IS-14),2009-064A,2026-06-07T18:20:49.666272,1.00271224,.000282,0.0157,330.8130,121.6505,33.9204,0,U,36097,999,6051,0,-.258E-5,0
EUTELSAT 36B,2009-065A,2026-06-07T18:47:59.957376,1.00270646,.0006098,0.4664,80.9993,354.5340,153.1388,0,U,36101,999,6061,0,.127E-5,0
INTELSAT 15 (IS-15),2009-067A,2026-06-07T18:57:51.512256,1.00271629,.0002299,0.0031,343.4683,96.3018,186.0389,0,U,36106,999,4113,0,-.17E-5,0
WGS F3 (USA 211),2009-068A,2026-06-07T17:56:32.593344,1.00270820,.0000429,0.3349,85.8252,335.7239,333.7616,0,U,36108,999,4649,0,.79E-6,0
DIRECTV 12,2009-075A,2026-06-07T14:39:04.175136,1.00270450,.0000259,0.0273,150.8162,248.0677,334.1802,0,U,36131,999,4645,0,-.89E-6,0
BEIDOU-2 G1,2010-001A,2026-06-07T15:48:22.460256,1.00274962,.0002726,4.2707,60.4354,307.3733,265.7954,0,U,36287,999,6007,0,-.265E-5,0
SDO,2010-005A,2026-06-07T08:09:18.834048,1.00270991,.0001446,34.6306,86.4930,51.5823,138.0028,0,U,36395,999,5996,0,-.6E-6,0
INTELSAT 16 (IS-16),2010-006A,2026-06-07T13:03:52.635744,1.00270898,.0002192,0.0231,49.9771,40.6889,285.0667,0,U,36397,999,5955,0,-.23E-5,0
EWS-G2 (GOES 15),2010-008A,2026-06-07T18:51:44.598240,1.00275824,.0005472,1.2510,83.0160,37.7549,121.9434,0,U,36411,999,5954,0,.34E-6,0
ECHOSTAR 14,2010-010A,2026-06-07T14:34:27.117120,1.00272018,.0002502,0.0451,90.3591,2.5539,262.8111,0,U,36499,999,4645,0,.15E-6,0
