INMARSAT 4-F3           
1 33278U 08039A   26158.61133167 -.00000127  00000+0  00000+0 0  9992
2 33278   4.2850  31.5931 0002755  46.5711 299.9123  1.00271604 46443
NIMIQ 4                 
1 33373U 08044A   26158.61453833 -.00000206  00000+0  00000+0 0  9997
2 33373   0.0107  39.2508 0002034  27.7119 328.2861  1.00270671 64882
GALAXY 19 (G-19)        
1 33376U 08045A   26158.61159167 -.00000125  00000+0  00000+0 0  9994
2 33376   0.0219  78.0304 0002797 356.6886 304.4796  1.00272044 64806
ASTRA 1M                
1 33436U 08057A   26158.67185586  .00000136  00000+0  00000+0 0  9995
2 33436   0.2709  82.3308 0005053  20.5138  54.5052  1.00274189 45647
EUTELSAT HOTBIRD 13C    
1 33459U 08065A   26158.76333705 -.00000268  00000+0  00000+0 0  9994
2 33459   2.9252  79.3029 0003735 358.9830  42.3801  1.00271442 47257
EXPRESS-AM44            
1 33595U 09007A   26158.84249003 -.00000074  00000+0  00000+0 0  9993
2 33595   3.4389  78.5070 0004381 352.9471 117.0887  1.00272008 52197
NSS-9                   
1 33749U 09008A   26158.73832608  .00000087  00000+0  00000+0 0  9995
2 33749   1.2364  82.7516 0002212 343.7765 278.4729  1.00271380 63421
TELSTAR 11N             
1 34111U 09009A   26158.76593706 -.00000236  00000+0  00000+0 0  9993
2 34111   0.0172  10.7261 0002557  54.8938  68.7261  1.00271223 46159
WGS F2 (USA 204)        
1 34713U 09017A   26158.66097749  .00000082  00000+0  00000+0 0  9993
2 34713   0.0143 331.5616 0000571 263.2633 316.7131  1.00271920 45521
SES-7 (PROTOSTAR 2)     
1 34941U 09027A   26158.79477288 -.00000330  00000+0  00000+0 0  9998
2 34941   0.0614  79.4209 0000426 322.7039 248.4539  1.00272623 62537
MEASAT-3A               
1 35362U 09032A   26158.73373272 -.00000095  00000+0  00000+0 0  9992
2 35362   0.0225 358.3958 0003114  75.5347 246.3515  1.00271974  7937
GOES 14                 
1 35491U 09033A   26158.63128661 -.00000237  00000+0  00000+0 0  9993
2 35491   1.6645  83.1599 0001995   3.5143 183.9218  1.00114378  6497
FM-5                    
1 35493U 09034A   26158.61367168 -.00000186  00000+0  00000+0 0  9994
2 35493   0.0184 288.8152 0000598  25.4069  76.5681  1.00273109 46546
TERRESTAR-1             
1 35496U 09035A   26158.25231152 -.00000043  00000+0  00000+0 0  9993
2 35496   5.1772  48.8053 0002781  23.6067 163.0761  1.00273477 62037
ASIASAT 5               
1 35696U 09042A   26158.86594546 -.00000292  00000+0  00000+0 0  9995
2 35696   0.0122  48.5791 0001496   9.0897 250.8449  1.00271974 61610
JCSAT-12 (JCSAT-RA)     
1 35755U 09044A   26158.79953957 -.00000313  00000+0  00000+0 0  9994
2 35755   0.0071 317.5925 0000191 136.7085 221.7736  1.00271786 61511
OPTUS D3                
1 35756U 09044B   26158.73295271 -.00000131  00000+0  00000+0 0  9995
2 35756   0.8636 269.7236 0003141 170.9629 235.4519  1.00270175 61479
NIMIQ 5                 
1 35873U 09050A   26158.54505256 -.00000242  00000+0  00000+0 0  9991
2 35873   0.0257  70.2113 0002896   6.4286 302.8311  1.00271662 61243
AMAZONAS 2              
1 35942U 09054A   26158.54513921 -.00000244  00000+0  00000+0 0  9992
2 35942   1.7898  83.1766 0003504 348.9259 308.1126  1.00271917 61085
COMSATBW-1              
1 35943U 09054B   26158.78584617  .00000039  00000+0  00000+0 0  9990
2 35943   0.0575  75.5591 0003019   5.9533 160.5811  1.00271752 61210
NSS-12                  
1 36032U 09058A   26158.78463285  .00000087  00000+0  00000+0 0  9994
2 36032   0.0660  63.8522 0004947 343.7595 188.0411  1.00270711 60822
THOR 6                  
1 36033U 09058B   26158.77321708  .00000005  00000+0  00000+0 0  9997
2 36033   0.0408 117.4347 0002200 345.9396  70.3086  1.00271921 60912
INTELSAT 14 (IS-14)     
1 36097U 09064A   26158.76446373 -.00000258  00000+0  00000+0 0  9990
2 36097   0.0157 330.8130 0002820 121.6505  33.9204  1.00271224 60512
EUTELSAT 36B            
1 36101U 09065A   26158.78333284  .00000127  00000+0  00000+0 0  9999
2 36101   0.4664  80.9993 0006098 354.5340 153.1388  1.00270646 60616
INTELSAT 15 (IS-15)     
1 36106U 09067A   26158.79017954 -.00000170  00000+0  00000+0 0  9999
2 36106   0.0031 343.4683 0002299  96.3018 186.0389  1.00271629 41134
WGS F3 (USA 211)        
1 36108U 09068A   26158.74759946  .00000079  00000+0  00000+0 0  9998
2 36108   0.3349  85.8252 0000429 335.7239 333.7616  1.00270820 46498
DIRECTV 12              
1 36131U 09075A   26158.61046499 -.00000089  00000+0  00000+0 0  9992
2 36131   0.0273 150.8162 0000259 248.0677 334.1802  1.00270450 46450
BEIDOU-2 G1             
1 36287U 10001A   26158.65859329 -.00000265  00000+0  00000+0 0  9999
2 36287   4.2707  60.4354 0002726 307.3733 265.7954  1.00274962 60075
SDO                     
1 36395U 10005A   26158.33980132 -.00000060  00000+0  00000+0 0  9998
2 36395  34.6306  86.4930 0001446  51.5823 138.0028  1.00270991 59969
INTELSAT 16 (IS-16)     
1 36397U 10006A   26158.54435921 -.00000230  00000+0  00000+0 0  9994
2 36397   0.0231  49.9771 0002192  40.6889 285.0667  1.00270898 59555
EWS-G2 (GOES 15)        
1 36411U 10008A   26158.78593285  .00000034  00000+0  00000+0 0  9998
2 36411   1.2510  83.0160 0005472  37.7549 121.9434  1.00275824 59543
ECHOSTAR 14             
1 36499U 10010A   26158.60725830  .00000015  00000+0  00000+0 0  9990
2 36499   0.0451  90.3591 0002502   2.5539 262.8111  1.00272018 46454
